SILVERSAT               
1 66909U 98067XV  26035.73096155  .00111974  00000+0  12469-2 0  9998
2 66909  51.6265 232.3240 0002733 198.6299 161.4595 15.61983699 10023
1998-067XW              
1 66910U 98067XW  26035.80699781  .00090282  00000+0  10583-2 0  9995
2 66910  51.6258 232.0768 0001037 199.7580 160.3373 15.60755016 10032
1998-067XX              
1 66911U 98067XX  26035.70412904  .00122650  00000+0  13061-2 0  9994
2 66911  51.6239 232.1391 0002303 228.4224 131.6573 15.63087495 10010
1998-067XY              
1 66912U 98067XY  26036.24759304  .00095558  00000+0  12332-2 0  9999
2 66912  51.6272 230.5253 0001586 147.2352 212.8739 15.58194839 10087
